[{"OBJECT_NAME":"STARLINK-2633","OBJECT_ID":"2021-040H","EPOCH":"2026-03-09T17:56:48.276672","MEAN_MOTION":15.29371056,"ECCENTRICITY":0.00012426,"INCLINATION":53.1552,"RA_OF_ASC_NODE":164.8493,"ARG_OF_PERICENTER":92.3494,"MEAN_ANOMALY":267.7648,"EPHEMERIS_TYPE":0,"CLASSIFICATION_TYPE":"U","NORAD_CAT_ID":48435,"ELEMENT_SET_NO":999,"REV_AT_EPOCH":26686,"BSTAR":0.00052180168,"MEAN_MOTION_DOT":0.00014738,"MEAN_MOTION_DDOT":0},{"OBJECT_NAME":"OBJECT J","OBJECT_ID":"2025-155J","EPOCH":"2026-03-09T22:09:22.347648","MEAN_MOTION":15.2758258,"ECCENTRICITY":0.00088188,"INCLINATION":97.4475,"RA_OF_ASC_NODE":37.3123,"ARG_OF_PERICENTER":150.071,"MEAN_ANOMALY":210.1035,"EPHEMERIS_TYPE":0,"CLASSIFICATION_TYPE":"U","NORAD_CAT_ID":64884,"ELEMENT_SET_NO":999,"REV_AT_EPOCH":6559,"BSTAR":0.00051444498,"MEAN_MOTION_DOT":0.00013827,"MEAN_MOTION_DDOT":0}]
